NORAD_CAT_ID,OBJECT_NAME,OBJECT_TYPE,EPOCH,MEAN_MOTION,ECCENTRICITY,INCLINATION,RA_OF_ASC_NODE,ARG_OF_PERICENTER,MEAN_ANOMALY,BSTAR,MEAN_MOTION_DOT,MEAN_MOTION_DDOT,TLE_LINE0,TLE_LINE1,TLE_LINE2,SEMIMAJOR_AXIS,PERIOD,APOGEE,PERIGEE,DECAYED
55632.0,STARLINK-5546,PAYLOAD,2023-11-10 09:44:22,14.9830202,0.0002212,70.0011,188.3368,300.4572,59.6368,-0.00011929,-1.515e-05,0.0,0 STARLINK-5546,1 55632U 23021E   23314.40581400 -.00001515  00000-0 -11929-3 0  9993,2 55632  70.0011 188.3368 0002212 300.4572  59.6368 14.98302020 40636,6950.279,96.109,573.682,570.607,0.0
55632.0,STARLINK-5546,PAYLOAD,2023-11-10 19:21:10,14.98305984,0.0002278,70.0019,187.3249,264.8518,95.2381,-0.00019503,-2.418e-05,0.0,0 STARLINK-5546,1 55632U 23021E   23314.80637416 -.00002418  00000-0 -19503-3 0  9995,2 55632  70.0019 187.3249 0002278 264.8518  95.2381 14.98305984 40695,6950.267,96.109,573.715,570.549,0.0
55632.0,STARLINK-5546,PAYLOAD,2023-11-11 01:45:41,14.98323659,0.0002809,69.9995,186.6525,268.5083,91.5754,-4.8372e-05,-6.7e-06,0.0,0 STARLINK-5546,1 55632U 23021E   23315.07340017 -.00000670  00000-0 -48372-4 0  9998,2 55632  69.9995 186.6525 0002809 268.5083  91.5754 14.98323659 40739,6950.213,96.107,574.03,570.125,0.0
55632.0,STARLINK-5546,PAYLOAD,2023-11-11 19:23:09,14.98334632,0.0003039,69.9988,184.7985,268.3112,91.7698,0.00011394,1.267e-05,0.0,0 STARLINK-5546,1 55632U 23021E   23315.80774870  .00001267  00000-0  11394-3 0  9991,2 55632  69.9988 184.7985 0003039 268.3112  91.7698 14.98334632 40841,6950.179,96.107,574.156,569.931,0.0
55632.0,STARLINK-5546,PAYLOAD,2023-11-11 22:35:25,14.983371,0.0002868,69.999,184.4631,262.4223,97.6611,0.00010775,1.193e-05,0.0,0 STARLINK-5546,1 55632U 23021E   23315.94126761  .00001193  00000-0  10775-3 0  9996,2 55632  69.9990 184.4631 0002868 262.4223  97.6611 14.98337100 41165,6950.171,96.107,574.029,570.043,0.0
55632.0,STARLINK-5546,PAYLOAD,2023-11-12 08:12:13,14.98334489,0.000292,69.9988,183.452,269.0995,90.9829,0.00019789,2.269e-05,0.0,0 STARLINK-5546,1 55632U 23021E   23316.34182507  .00002269  00000-0  19789-3 0  9990,2 55632  69.9988 183.4520 0002920 269.0995  90.9829 14.98334489 41227,6950.179,96.107,574.073,570.015,0.0
55632.0,STARLINK-5546,PAYLOAD,2023-11-12 19:25:10,14.98329187,0.0002984,69.999,182.274,271.3768,88.7049,0.00031518,3.67e-05,0.0,0 STARLINK-5546,1 55632U 23021E   23316.80914603  .00003670  00000-0  31518-3 0  9992,2 55632  69.9990 182.2740 0002984 271.3768  88.7049 14.98329187 40996,6950.195,96.107,574.134,569.986,0.0
55632.0,STARLINK-5546,PAYLOAD,2023-11-12 21:01:18,14.98331159,0.0003037,69.9989,182.1059,270.1459,89.9352,0.00034848,4.068e-05,0.0,0 STARLINK-5546,1 55632U 23021E   23316.87590345  .00004068  00000-0  34848-3 0  9993,2 55632  69.9989 182.1059 0003037 270.1459  89.9352 14.98331159 41308,6950.189,96.107,574.165,569.944,0.0
55632.0,STARLINK-5546,PAYLOAD,2023-11-13 00:13:33,14.98341668,0.0002934,69.999,181.7694,272.308,87.7743,0.00019934,2.287e-05,0.0,0 STARLINK-5546,1 55632U 23021E   23317.00942025  .00002287  00000-0  19934-3 0  9995,2 55632  69.9990 181.7694 0002934 272.3080  87.7743 14.98341668 41024,6950.157,96.106,574.061,569.983,0.0
55632.0,STARLINK-5546,PAYLOAD,2023-11-13 21:03:18,14.98339507,0.0002663,69.9995,179.5807,264.7462,95.3393,-5.0906e-05,-7e-06,0.0,0 STARLINK-5546,1 55632U 23021E   23317.87730278 -.00000700  00000-0 -50906-4 0  9990,2 55632  69.9995 179.5807 0002663 264.7462  95.3393 14.98339507 41450,6950.163,96.106,573.879,570.178,0.0
55632.0,STARLINK-5546,PAYLOAD,2023-11-14 01:51:43,14.98334892,0.000281,69.9992,179.076,267.506,92.5777,-9.7309e-05,-1.254e-05,0.0,0 STARLINK-5546,1 55632U 23021E   23318.07758581 -.00001254  00000-0 -97309-4 0  9993,2 55632  69.9992 179.0760 0002810 267.5060  92.5777 14.98334892 41186,6950.178,96.107,573.996,570.09,0.0
55632.0,STARLINK-5546,PAYLOAD,2023-11-14 08:16:15,14.98334767,0.000287,69.9989,178.4022,268.7108,91.3722,-0.00012657,-1.603e-05,0.0,0 STARLINK-5546,1 55632U 23021E   23318.34462543 -.00001603  00000-0 -12657-3 0  9993,2 55632  69.9989 178.4022 0002870 268.7108  91.3722 14.98334767 41524,6950.178,96.107,574.038,570.048,0.0
55632.0,STARLINK-5546,PAYLOAD,2023-11-14 21:05:19,14.98335682,0.0002912,69.9991,177.0553,265.9034,94.1792,-9.7339e-05,-1.254e-05,0.0,0 STARLINK-5546,1 55632U 23021E   23318.87870163 -.00001254  00000-0 -97339-4 0  9995,2 55632  69.9991 177.0553 0002912 265.9034  94.1792 14.98335682 41609,6950.175,96.107,574.064,570.016,0.0
55632.0,STARLINK-5546,PAYLOAD,2023-11-15 21:07:20,14.98328873,0.0002905,69.9988,174.5314,268.4892,91.5934,2.7386e-05,2.34e-06,0.0,0 STARLINK-5546,1 55632U 23021E   23319.88010073  .00000234  00000-0  27386-4 0  9993,2 55632  69.9988 174.5314 0002905 268.4892  91.5934 14.98328873 41753,6950.196,96.107,574.08,570.042,0.0
55632.0,STARLINK-5546,PAYLOAD,2023-11-16 00:19:36,14.98329393,0.0002892,69.9993,174.1949,268.5477,91.5351,3.4566e-05,3.19e-06,0.0,0 STARLINK-5546,1 55632U 23021E   23320.01362028  .00000319  00000-0  34566-4 0  9992,2 55632  69.9993 174.1949 0002892 268.5477  91.5351 14.98329393 41474,6950.195,96.107,574.07,570.05,0.0
55632.0,STARLINK-5546,PAYLOAD,2023-11-16 21:09:21,14.98334189,0.0002925,69.998,172.0063,268.8927,91.1897,-1.2474e-05,-2.42e-06,0.0,0 STARLINK-5546,1 55632U 23021E   23320.88149640 -.00000242  00000-0 -12474-4 0  9991,2 55632  69.9980 172.0063 0002925 268.8927  91.1897 14.98334189 41902,6950.18,96.107,574.078,570.012,0.0
55632.0,STARLINK-5546,PAYLOAD,2023-11-17 00:21:37,14.98330464,0.0002898,69.9996,171.6706,268.3206,91.7621,2.6935e-05,2.28e-06,0.0,0 STARLINK-5546,1 55632U 23021E   23321.01501933  .00000228  00000-0  26935-4 0  9993,2 55632  69.9996 171.6706 0002898 268.3206  91.7621 14.98330464 41624,6950.191,96.107,574.071,570.042,0.0
55632.0,STARLINK-5546,PAYLOAD,2023-11-17 22:47:30,14.98332475,0.0002902,70.001,169.3145,269.0857,90.9969,1.7395e-05,1.15e-06,0.0,0 STARLINK-5546,1 55632U 23021E   23321.94965723  .00000115  00000-0  17395-4 0  9991,2 55632  70.0010 169.3145 0002902 269.0857  90.9969 14.98332475 42060,6950.185,96.107,574.067,570.033,0.0
55632.0,STARLINK-5546,PAYLOAD,2023-11-18 00:23:38,14.98331925,0.0002917,69.9997,169.1458,269.0186,91.0639,1.0093e-05,2.7e-07,0.0,0 STARLINK-5546,1 55632U 23021E   23322.01641763  .00000027  00000-0  10093-4 0  9995,2 55632  69.9997 169.1458 0002917 269.0186  91.0639 14.98331925 41779,6950.187,96.107,574.079,570.025,0.0
55632.0,STARLINK-5546,PAYLOAD,2023-11-18 06:48:10,14.98330508,0.0002932,69.9997,168.4724,269.4282,90.6541,-6.2698e-06,-1.68e-06,0.0,0 STARLINK-5546,1 55632U 23021E   23322.28345867 -.00000168  00000-0 -62698-5 0  9997,2 55632  69.9997 168.4724 0002932 269.4282  90.6541 14.98330508 42117,6950.191,96.107,574.094,570.019,0.0
55632.0,STARLINK-5546,PAYLOAD,2023-11-18 22:49:31,14.98331756,0.0003009,69.9997,166.7887,271.6304,88.451,-1.5594e-07,-9.5e-07,0.0,0 STARLINK-5546,1 55632U 23021E   23322.95105670 -.00000095  00000-0 -15594-6 0  9990,2 55632  69.9997 166.7887 0003009 271.6304  88.4510 14.98331756 42212,6950.187,96.107,574.144,569.961,0.0
55632.0,STARLINK-5546,PAYLOAD,2023-11-19 06:50:11,14.98330222,0.0003028,69.9994,165.947,271.8121,88.2692,-1.7266e-05,-2.99e-06,0.0,0 STARLINK-5546,1 55632U 23021E   23323.28485786 -.00000299  00000-0 -17266-4 0  9998,2 55632  69.9994 165.9470 0003028 271.8121  88.2692 14.98330222 41965,6950.192,96.107,574.162,569.953,0.0
55632.0,STARLINK-5546,PAYLOAD,2023-11-19 21:15:24,14.98330751,0.0002949,69.9984,164.432,271.744,88.3381,6.7635e-06,-1.2e-07,0.0,0 STARLINK-5546,1 55632U 23021E   23323.88569651 -.00000012  00000-0  67635-5 0  9996,2 55632  69.9984 164.4320 0002949 271.7440  88.3381 14.98330751 42353,6950.191,96.107,574.105,570.006,0.0
55632.0,STARLINK-5546,PAYLOAD,2023-11-20 06:52:12,14.983291,0.0002917,69.9984,163.4224,269.925,90.1574,-5.261e-06,-1.56e-06,0.0,0 STARLINK-5546,1 55632U 23021E   23324.28625777 -.00000156  00000-0 -52610-5 0  9990,2 55632  69.9984 163.4224 0002917 269.9250  90.1574 14.98329100 42113,6950.196,96.107,574.088,570.033,0.0
55632.0,STARLINK-5546,PAYLOAD,2023-11-20 14:52:52,14.98330508,0.0002912,69.9983,162.5808,269.8605,90.222,4.2107e-06,-4.3e-07,0.0,0 STARLINK-5546,1 55632U 23021E   23324.62005666 -.00000043  00000-0  42107-5 0  9991,2 55632  69.9983 162.5808 0002912 269.8605  90.2220 14.98330508 42469,6950.191,96.107,574.08,570.032,0.0
55632.0,STARLINK-5546,PAYLOAD,2023-11-20 21:17:25,14.98329458,0.0002909,69.9983,161.9073,269.7605,90.322,1.8905e-05,1.33e-06,0.0,0 STARLINK-5546,1 55632U 23021E   23324.88709665  .00000133  00000-0  18905-4 0  9996,2 55632  69.9983 161.9073 0002909 269.7605  90.3220 14.98329458 42509,6950.195,96.107,574.081,570.038,0.0
55632.0,STARLINK-5546,PAYLOAD,2023-11-21 06:54:13,14.9832928,0.0002909,69.9983,160.8972,269.8646,90.218,1.3878e-05,7.3e-07,0.0,0 STARLINK-5546,1 55632U 23021E   23325.28765702  .00000073  00000-0  13878-4 0  9992,2 55632  69.9983 160.8972 0002909 269.8646  90.2180 14.98329280 42261,6950.195,96.107,574.082,570.038,0.0
55632.0,STARLINK-5546,PAYLOAD,2023-11-21 13:18:45,14.98330512,0.0002907,69.9982,160.224,269.8585,90.2241,1.5197e-05,8.8e-07,0.0,0 STARLINK-5546,1 55632U 23021E   23325.55469625  .00000088  00000-0  15197-4 0  9999,2 55632  69.9982 160.2240 0002907 269.8585  90.2241 14.98330512 42608,6950.191,96.107,574.077,570.036,0.0
55632.0,STARLINK-5546,PAYLOAD,2023-11-21 21:19:25,14.98331768,0.000289,69.9981,159.3819,269.1788,90.904,3.0246e-05,2.68e-06,0.0,0 STARLINK-5546,1 55632U 23021E   23325.88849487  .00000268  00000-0  30246-4 0  9995,2 55632  69.9981 159.3819 0002890 269.1788  90.9040 14.98331768 42650,6950.187,96.107,574.061,570.044,0.0
55632.0,STARLINK-5546,PAYLOAD,2023-11-22 13:20:46,14.98331833,0.0002898,69.9981,157.6989,269.669,90.4137,3.1072e-05,2.78e-06,0.0,0 STARLINK-5546,1 55632U 23021E   23326.55609420  .00000278  00000-0  31072-4 0  9990,2 55632  69.9981 157.6989 0002898 269.6690  90.4137 14.98331833 42750,6950.187,96.107,574.066,570.038,0.0
